NORAD_CAT_ID,OBJECT_NAME,OBJECT_TYPE,EPOCH,MEAN_MOTION,ECCENTRICITY,INCLINATION,RA_OF_ASC_NODE,ARG_OF_PERICENTER,MEAN_ANOMALY,BSTAR,MEAN_MOTION_DOT,MEAN_MOTION_DDOT,TLE_LINE0,TLE_LINE1,TLE_LINE2,SEMIMAJOR_AXIS,PERIOD,APOGEE,PERIGEE,DECAYED
49177.0,STARLINK-3103,PAYLOAD,2023-09-10 18:52:09,14.98348323,0.0003475,70.0017,31.1752,279.481,80.5956,0.00027393,3.179e-05,0.0,0 STARLINK-3103,1 49177U 21082AZ  23253.78621969  .00003179  00000-0  27393-3 0  9991,2 49177  70.0017  31.1752 0003475 279.4810  80.5956 14.98348323111713,6950.136,96.106,574.416,569.586,0.0
49177.0,STARLINK-3103,PAYLOAD,2023-09-11 02:52:50,14.98339085,0.0003314,70.0024,30.3346,279.9987,80.0798,0.00013316,1.497e-05,0.0,0 STARLINK-3103,1 49177U 21082AZ  23254.12002633  .00001497  00000-0  13316-3 0  9992,2 49177  70.0024  30.3346 0003314 279.9987  80.0798 14.98339085111762,6950.165,96.106,574.333,569.727,0.0
49177.0,STARLINK-3103,PAYLOAD,2023-09-11 14:05:46,14.98341607,0.0003424,70.0019,29.1553,276.3191,83.7578,-1.3165e-05,-2.5e-06,0.0,0 STARLINK-3103,1 49177U 21082AZ  23254.58734343 -.00000250  00000-0 -13165-4 0  9993,2 49177  70.0019  29.1553 0003424 276.3191  83.7578 14.98341607111839,6950.157,96.106,574.402,569.642,0.0
49177.0,STARLINK-3103,PAYLOAD,2023-09-12 10:55:31,14.98337376,0.00034,70.0024,26.9682,278.0735,82.0039,-3.7778e-05,-5.44e-06,0.0,0 STARLINK-3103,1 49177U 21082AZ  23255.45522169 -.00000544  00000-0 -37778-4 0  9993,2 49177  70.0024  26.9682 0003400 278.0735  82.0039 14.98337376111966,6950.17,96.107,574.398,569.672,0.0
49177.0,STARLINK-3103,PAYLOAD,2023-09-12 12:31:39,14.9833719,0.000341,70.0024,26.7999,278.0443,82.0329,-3.8951e-05,-5.58e-06,0.0,0 STARLINK-3103,1 49177U 21082AZ  23255.52198146 -.00000558  00000-0 -38951-4 0  9994,2 49177  70.0024  26.7999 0003410 278.0443  82.0329 14.98337190111979,6950.171,96.107,574.406,569.666,0.0
49177.0,STARLINK-3103,PAYLOAD,2023-09-12 17:20:02,14.98347074,0.0002839,70.0024,26.2949,264.2197,95.8638,-0.00013023,-1.647e-05,0.0,0 STARLINK-3103,1 49177U 21082AZ  23255.72225527 -.00001647  00000-0 -13023-3 0  9992,2 49177  70.0024  26.2949 0002839 264.2197  95.8638 14.98347074112008,6950.14,96.106,573.978,570.032,0.0
49177.0,STARLINK-3103,PAYLOAD,2023-09-12 18:56:10,14.98343732,0.0003425,70.0024,26.1267,278.0476,82.0294,5.6276e-06,-2.6e-07,0.0,0 STARLINK-3103,1 49177U 21082AZ  23255.78901484 -.00000026  00000-0  56276-5 0  9999,2 49177  70.0024  26.1267 0003425 278.0476  82.0294 14.98343732112019,6950.15,96.106,574.396,569.635,0.0
49177.0,STARLINK-3103,PAYLOAD,2023-09-13 12:33:39,14.98336647,0.0003603,70.0024,24.2755,275.7351,84.3397,0.00019429,2.226e-05,0.0,0 STARLINK-3103,1 49177U 21082AZ  23256.52337143  .00002226  00000-0  19429-3 0  9997,2 49177  70.0024  24.2755 0003603 275.7351  84.3397 14.98336647112122,6950.172,96.107,574.541,569.533,0.0
49177.0,STARLINK-3103,PAYLOAD,2023-09-13 17:22:03,14.98340522,0.0003744,70.0025,23.771,280.7523,79.3214,0.0002663,3.087e-05,0.0,0 STARLINK-3103,1 49177U 21082AZ  23256.72364787  .00003087  00000-0  26630-3 0  9991,2 49177  70.0025  23.7710 0003744 280.7523  79.3214 14.98340522112153,6950.16,96.106,574.627,569.423,0.0
49177.0,STARLINK-3103,PAYLOAD,2023-09-13 18:58:10,14.98346779,0.0003423,70.0023,23.6027,277.5353,82.5417,0.0001922,2.202e-05,0.0,0 STARLINK-3103,1 49177U 21082AZ  23256.79040474  .00002202  00000-0  19220-3 0  9997,2 49177  70.0023  23.6027 0003423 277.5353  82.5417 14.98346779112162,6950.141,96.106,574.385,569.627,0.0
49177.0,STARLINK-3103,PAYLOAD,2023-09-14 01:22:42,14.98374658,0.0002956,70.0057,22.9301,273.9193,86.1628,-0.0008921,-0.00010733,0.0,0 STARLINK-3103,1 49177U 21082AZ  23257.05743940 -.00010733  00000-0 -89210-3 0  9991,2 49177  70.0057  22.9301 0002956 273.9193  86.1628 14.98374658112204,6950.055,96.104,573.974,569.865,0.0
49177.0,STARLINK-3103,PAYLOAD,2023-09-14 10:59:33,14.98316521,0.000345,70.0024,21.9198,271.8618,88.2146,-0.0001032,-1.324e-05,0.0,0 STARLINK-3103,1 49177U 21082AZ  23257.45803038 -.00001324  00000-0 -10320-3 0  9992,2 49177  70.0024  21.9198 0003450 271.8618  88.2146 14.98316521112269,6950.235,96.108,574.497,569.702,0.0
49177.0,STARLINK-3103,PAYLOAD,2023-09-14 12:35:41,14.98320058,0.0003196,70.0035,21.7557,271.4929,88.5864,1.2701e-05,5.9e-07,0.0,0 STARLINK-3103,1 49177U 21082AZ  23257.52478695  .00000059  00000-0  12701-4 0  9995,2 49177  70.0035  21.7557 0003196 271.4929  88.5864 14.98320058112277,6950.224,96.108,574.31,569.867,0.0
49177.0,STARLINK-3103,PAYLOAD,2023-09-14 17:24:06,14.98318642,0.0003179,70.0028,21.2487,267.2533,92.8263,-9.7162e-05,-1.252e-05,0.0,0 STARLINK-3103,1 49177U 21082AZ  23257.72507040 -.00001252  00000-0 -97162-4 0  9996,2 49177  70.0028  21.2487 0003179 267.2533  92.8263 14.98318642112302,6950.228,96.108,574.302,569.884,0.0
49177.0,STARLINK-3103,PAYLOAD,2023-09-15 09:25:25,14.98333126,0.0003838,70.0011,19.562,276.3198,83.7524,-2.0711e-05,-3.4e-06,0.0,0 STARLINK-3103,1 49177U 21082AZ  23258.39266071 -.00000340  00000-0 -20711-4 0  9999,2 49177  70.0011  19.5620 0003838 276.3198  83.7524 14.98333126112407,6950.183,96.107,574.716,569.381,0.0
49177.0,STARLINK-3103,PAYLOAD,2023-09-15 11:01:33,14.98333742,0.0003926,70.0011,19.3933,278.5374,81.534,-1.4786e-05,-2.7e-06,0.0,0 STARLINK-3103,1 49177U 21082AZ  23258.45942019 -.00000270  00000-0 -14786-4 0  9996,2 49177  70.0011  19.3933 0003926 278.5374  81.5340 14.98333742112417,6950.181,96.107,574.775,569.318,0.0
49177.0,STARLINK-3103,PAYLOAD,2023-09-16 09:27:25,14.98337143,0.0003874,70.0011,17.0362,275.9783,84.0934,0.00045026,5.285e-05,0.0,0 STARLINK-3103,1 49177U 21082AZ  23259.39404528  .00005285  00000-0  45026-3 0  9997,2 49177  70.0011  17.0362 0003874 275.9783  84.0934 14.98337143112556,6950.171,96.107,574.728,569.343,0.0
49177.0,STARLINK-3103,PAYLOAD,2023-09-16 12:39:41,14.9834394,0.0003527,70.0021,16.7026,266.2494,93.8262,0.00050957,5.995e-05,0.0,0 STARLINK-3103,1 49177U 21082AZ  23259.52756087  .00005995  00000-0  50957-3 0  9999,2 49177  70.0021  16.7026 0003527 266.2494  93.8262 14.98343940112573,6950.15,96.106,574.466,569.563,0.0
49177.0,STARLINK-3103,PAYLOAD,2023-09-16 17:28:05,14.98361538,0.0003593,70.0035,16.1975,267.6222,92.4525,0.00084642,0.00010029,0.0,0 STARLINK-3103,1 49177U 21082AZ  23259.72784050  .00010029  00000-0  84642-3 0  9994,2 49177  70.0035  16.1975 0003593 267.6222  92.4525 14.98361538112606,6950.095,96.105,574.458,569.463,0.0
49177.0,STARLINK-3103,PAYLOAD,2023-09-17 09:29:26,14.98337207,0.0003616,70.0046,14.5163,263.2388,96.836,-2.3424e-05,-3.73e-06,0.0,0 STARLINK-3103,1 49177U 21082AZ  23260.39544784 -.00000373  00000-0 -23424-4 0  9992,2 49177  70.0046  14.5163 0003616 263.2388  96.8360 14.98337207112702,6950.171,96.107,574.549,569.522,0.0
49177.0,STARLINK-3103,PAYLOAD,2023-09-17 12:41:42,14.98335243,0.0003492,70.0042,14.1795,256.746,103.331,-0.00019436,-2.412e-05,0.0,0 STARLINK-3103,1 49177U 21082AZ  23260.52896560 -.00002412  00000-0 -19436-3 0  9992,2 49177  70.0042  14.1795 0003492 256.7460 103.3310 14.98335243112724,6950.177,96.107,574.469,569.615,0.0
49177.0,STARLINK-3103,PAYLOAD,2023-09-18 09:31:27,14.98333805,0.0003759,70.0031,11.9884,267.697,92.3758,-1.969e-05,-3.28e-06,0.0,0 STARLINK-3103,1 49177U 21082AZ  23261.39684836 -.00000328  00000-0 -19690-4 0  9996,2 49177  70.0031  11.9884 0003759 267.6970  92.3758 14.98333805112858,6950.181,96.107,574.659,569.434,0.0
49177.0,STARLINK-3103,PAYLOAD,2023-09-18 11:07:35,14.98333632,0.0003625,70.003,11.8201,261.518,98.5568,-4.7587e-05,-6.61e-06,0.0,0 STARLINK-3103,1 49177U 21082AZ  23261.46360855 -.00000661  00000-0 -47587-4 0  9992,2 49177  70.0030  11.8201 0003625 261.5180  98.5568 14.98333632112863,6950.182,96.107,574.566,569.527,0.0
49177.0,STARLINK-3103,PAYLOAD,2023-09-18 17:32:08,14.98339986,0.0003615,70.0031,11.1467,266.1683,93.9063,0.00061813,7.292e-05,0.0,0 STARLINK-3103,1 49177U 21082AZ  23261.73064890  .00007292  00000-0  61813-3 0  9994,2 49177  70.0031  11.1467 0003615 266.1683  93.9063 14.98339986112901,6950.162,96.106,574.539,569.515,0.0
49177.0,STARLINK-3103,PAYLOAD,2023-09-19 09:33:28,14.98340844,0.000346,70.0035,9.464,267.8293,92.247,0.0005313,6.254e-05,0.0,0 STARLINK-3103,1 49177U 21082AZ  23262.39824901  .00006254  00000-0  53130-3 0  9994,2 49177  70.0035   9.4640 0003460 267.8293  92.2470 14.98340844113002,6950.159,96.106,574.429,569.62,0.0
49177.0,STARLINK-3103,PAYLOAD,2023-09-20 12:47:46,14.98315219,0.0003276,70.0034,6.6029,247.9071,112.174,-0.00038011,-4.624e-05,0.0,0 STARLINK-3103,1 49177U 21082AZ  23263.53317669 -.00004624  00000-0 -38011-3 0  9991,2 49177  70.0034   6.6029 0003276 247.9071 112.1740 14.98315219113177,6950.239,96.108,574.38,569.827,0.0
49177.0,STARLINK-3103,PAYLOAD,2023-09-20 14:23:54,14.9831312,0.0003329,70.0034,6.4351,250.5514,109.5285,-0.00032456,-3.962e-05,0.0,0 STARLINK-3103,1 49177U 21082AZ  23263.59993983 -.00003962  00000-0 -32456-3 0  9997,2 49177  70.0034   6.4351 0003329 250.5514 109.5285 14.98313120113188,6950.245,96.108,574.424,569.796,0.0
49177.0,STARLINK-3103,PAYLOAD,2023-09-20 16:00:02,14.98314321,0.0003142,70.0036,6.2664,250.5954,109.4866,-0.0002907,-3.558e-05,0.0,0 STARLINK-3103,1 49177U 21082AZ  23263.66670012 -.00003558  00000-0 -29070-3 0  9999,2 49177  70.0036   6.2664 0003142 250.5954 109.4866 14.98314321113195,6950.241,96.108,574.29,569.923,0.0
49177.0,STARLINK-3103,PAYLOAD,2023-09-21 09:37:30,14.9834562,0.0003878,70.0023,4.4149,268.1095,91.962,0.00049625,5.836e-05,0.0,0 STARLINK-3103,1 49177U 21082AZ  23264.40104759  .00005836  00000-0  49625-3 0  9999,2 49177  70.0023   4.4149 0003878 268.1095  91.9620 14.98345620113308,6950.145,96.106,574.705,569.314,0.0
49177.0,STARLINK-3103,PAYLOAD,2023-09-21 12:49:46,14.98347851,0.0003608,70.0028,4.0792,264.6522,95.4225,0.00054822,6.458e-05,0.0,0 STARLINK-3103,1 49177U 21082AZ  23264.53456525  .00006458  00000-0  54822-3 0  9990,2 49177  70.0028   4.0792 0003608 264.6522  95.4225 14.98347851113320,6950.138,96.106,574.51,569.495,0.0
